MORELOS 3               
1 40946U 15056A   26201.26904103 -.00000046  00000+0  00000+0 0  9995
2 40946   3.2145  15.9041 0000598 159.0078 106.8910  1.00271197 39614
LINGQIAO VIDEO A        
1 40959U 15057B   26201.27706786  .00000396  00000+0  62255-4 0  9990
2 40959  97.6642 194.4503 0017190 156.6928 203.5067 14.77429772580291
LINGQIAO VIDEO B        
1 40960U 15057C   26201.25137016  .00000016  00000+0  90213-5 0  9999
2 40960  97.6607 195.5805 0017330 156.8163 203.3834 14.77534658580335
JILIN-1                 
1 40961U 15057D   26201.25003739  .00000393  00000+0  60793-4 0  9991
2 40961  97.6523 198.9781 0017663 150.9418 209.2781 14.78205769580492
AEROCUBE 5C             
1 40965U 15058B   26201.29336766  .00002026  00000+0  18521-3 0  9995
2 40965  64.7653 159.5853 0132714  50.5093 310.7667 14.91597120370596
AEROCUBE 7              
1 40966U 15058C   26201.12752087  .00002825  00000+0  23041-3 0  9996
2 40966  64.7617 141.6214 0122400  48.8705 312.2896 14.95942376370885
FOX-1A (AO-85)          
1 40967U 15058D   26201.15052579  .00001891  00000+0  17611-3 0  9997
2 40967  64.7727 176.5310 0132767  43.9361 317.2215 14.91107360118481
SINOD-D 1               
1 40968U 15058E   26201.10158335  .00003154  00000+0  25486-3 0  9993
2 40968  64.7742 155.8196 0121467  40.2971 320.7067 14.96117831121581
SNAP-3 ALICE            
1 40970U 15058G   26200.84291273  .00095788  00000+0  83270-3 0  9994
2 40970  64.7501 350.3405 0025695 345.4772  14.5636 15.68116452121990
LMRST-SAT               
1 40971U 15058H   26201.11430848  .00001816  00000+0  17088-3 0  9992
2 40971  64.7735 173.0446 0134291  45.9503 315.2575 14.90721767118468
SNAP-3 EDDIE            
1 40972U 15058J   26200.80627501  .00103668  00000+0  84605-3 0  9999
2 40972  64.7409 340.9392 0026691 347.9211  12.1296 15.69580626124135
PROPCUBE 3              
1 40973U 15058K   26201.26931106  .00002626  00000+0  22189-3 0  9991
2 40973  64.7679 149.1590 0126183  47.0717 314.0900 14.94441789119740
BISONSAT                
1 40974U 15058L   26201.06914400  .00007486  00000+0  35494-3 0  9990
2 40974  64.7580  67.2584 0082521  33.7919 326.8425 15.17008188120606
SNAP-3 JIMI             
1 40975U 15058M   26201.13692353  .00004266  00000+0  29334-3 0  9998
2 40975  64.7643 115.4924 0108222  42.4177 318.5241 15.02651100119177
PROPCUBE 1 (FLORA)      
1 40976U 15058N   26201.09952374  .00001578  00000+0  15649-3 0  9993
2 40976  64.7718 193.2203 0132843  48.2267 313.0106 14.89344001121160
SINOD-D 3               
1 40977U 15058P   26201.23936818  .00002655  00000+0  22814-3 0  9994
2 40977  64.7712 172.5910 0121464  45.2069 315.8844 14.94199183119693
APSTAR-9                
1 40982U 15059A   26201.29001595 -.00000268  00000+0  00000+0 0  9990
2 40982   0.0359  60.9519 0003203 123.2077   0.3190  1.00270715 39459
TURKSAT 4B              
1 40984U 15060A   26201.27172921  .00000113  00000+0  00000+0 0  9992
2 40984   0.0373 239.2756 0002184 229.5607 337.0054  1.00269992 39428
NAVSTAR 75 (USA 265)    
1 41019U 15062A   26200.68453010 -.00000087  00000+0  00000+0 0  9990
2 41019  56.9814  29.5602 0113042 230.8576 128.1660  2.00567075 78489
ZHONGXING-2C            
1 41021U 15063A   26200.22961213 -.00000331  00000+0  00000+0 0  9995
2 41021   0.3546  88.5486 0008954 107.9621 286.6179  1.00288439 39308
YAOGAN-28               
1 41026U 15064A   26201.33642571  .00003795  00000+0  14223-3 0  9999
2 41026  97.3116 338.9393 0011969  77.2584 282.9993 15.27797583595745
GSAT-15                 
1 41028U 15065A   26201.13786153 -.00000260  00000+0  00000+0 0  9994
2 41028   0.1047 263.6200 0003552 177.2764   0.1546  1.00272006 39126
BADR-7 (ARABSAT-6B)     
1 41029U 15065B   26201.26704919  .00000143  00000+0  00000+0 0  9998
2 41029   0.0474 232.9804 0004793 329.9050 217.2657  1.00270827 39090
COSMOS 2510             
1 41032U 15066A   26200.79719273 -.00001643  00000+0  00000+0 0  9996
2 41032  63.4727 341.6416 7198387 274.7270  13.9262  2.00806753 78120
LAOSAT 1                
1 41034U 15067A   26201.28732927 -.00000345  00000+0  00000+0 0  9993
2 41034   0.0397 239.4592 0002799 187.2037 103.3421  1.00273785 39191
TELSTAR 12V             
1 41036U 15068A   26201.25890249 -.00000121  00000+0  00000+0 0  9997
2 41036   0.0155  76.3633 0002296  37.9456 261.9201  1.00271379 38954
YAOGAN-29               
1 41038U 15069A   26201.30435187  .00000170  00000+0  27540-4 0  9998
2 41038  98.0017 229.9877 0000232   6.1208 354.0008 14.83108151575538
ELEKTRO-L 2             
1 41105U 15074A   26200.97384480 -.00000124  00000+0  00000+0 0  9997
2 41105   6.7747  70.1203 0000853 224.9166 338.8081  1.00272222 38834
COSMOS 2513             
1 41121U 15075A   26200.18913678 -.00000144  00000+0  00000+0 0  9998
2 41121   0.0617 103.7293 0002182 343.7867 357.7937  1.00273427 38863
VELOX-CI                
1 41166U 15077A   26201.16998109  .00013116  00000+0  19923-3 0  9990
2 41166  14.9809 188.7466 0004409 348.0899  11.9322 15.51033960587853
KENT RIDGE 1            
1 41167U 15077B   26200.83884566  .00002305  00000+0  63189-4 0  9997
2 41167  14.9808  23.1228 0008269 340.3146  19.6856 15.23298386586084
